STARLINK-11300 [DTC]    
1 61243U 24175A   26186.01627117  .00001955  00000+0  20963-4 0  9996
2 61243  53.1581 197.9117 0000575 105.8086 254.2996 15.69736363101795
STARLINK-11276 [DTC]    
1 61244U 24175B   26185.31102905  .00002271  00000+0  23603-4 0  9998
2 61244  53.1591 201.3311 0000566 102.9371 257.1710 15.69701234101681
STARLINK-11280 [DTC]    
1 61245U 24175C   26186.06521914  .00001672  00000+0  18631-4 0  9996
2 61245  53.1594 197.5101 0000584 143.9683 216.1375 15.69742564101806
STARLINK-11308 [DTC]    
1 61246U 24175D   26185.75179756  .00004314  00000+0  40431-4 0  9994
2 61246  53.1586 199.1042 0000774 107.2719 252.8384 15.69715858101751
STARLINK-11305 [DTC]    
1 61247U 24175E   26186.06032145  .00000643  00000+0  10153-4 0  9999
2 61247  53.1596 197.4672 0000483 274.5261  85.5701 15.69731332101805
STARLINK-11317 [DTC]    
1 61248U 24175F   26186.05540390  .00006078  00000+0  54906-4 0  9997
2 61248  53.1584 197.4346 0000737 125.6200 234.4886 15.69746262101809
STARLINK-11293 [DTC]    
1 61249U 24175G   26185.41383501  .00003712  00000+0  35474-4 0  9997
2 61249  53.1585 200.5410 0001171 103.1429 256.9720 15.69714488101706
STARLINK-11319 [DTC]    
1 61251U 24175J   26185.34046316  .00002941  00000+0  29134-4 0  9991
2 61251  53.1583 201.5210 0001064  65.5621 294.5508 15.69703953101686
STARLINK-11318 [DTC]    
1 61252U 24175K   26185.33555932  .00002588  00000+0  26212-4 0  9991
2 61252  53.1588 201.4889 0000514  53.2055 306.9010 15.69700541102853
STARLINK-11311 [DTC]    
1 61253U 24175L   26186.03098551  .00002920  00000+0  28918-4 0  9994
2 61253  53.1602 198.0041 0001571  87.2480 272.8718 15.69745802103008
STARLINK-11306 [DTC]    
1 61254U 24175M   26186.02608151  .00002342  00000+0  24153-4 0  9992
2 61254  53.1587 197.9701 0000470  74.8561 285.2509 15.69736059102998
STARLINK-11313 [DTC]    
1 61255U 24175N   26186.02116700  .00006120  00000+0  55224-4 0  9998
2 61255  53.1620 197.9353 0000422 114.8039 245.3023 15.69756578101795
STARLINK-32431          
1 61256U 24175P   26185.89663003  .00005024  00000+0  15969-3 0  9999
2 61256  53.1588   8.5585 0001456  69.2806 290.8353 15.34407649 99416
STARLINK-32432          
1 61257U 24175Q   26185.89031235  .00003429  00000+0  11259-3 0  9991
2 61257  53.1589   8.5194 0002136  73.3022 286.8215 15.34401052 99410
STARLINK-32382          
1 61258U 24175R   26185.81255002  .00010327  00000+0  31624-3 0  9997
2 61258  53.1609   8.7410 0001010 117.2710 242.8396 15.34409995 99404
STARLINK-32435          
1 61259U 24175S   26185.92809748  .00015236  00000+0  46071-3 0  9998
2 61259  53.1585   8.0489 0001456 106.1553 253.9610 15.34429851 99420
STARLINK-32474          
1 61260U 24175T   26185.77896695  .00017673  00000+0  53222-3 0  9993
2 61260  53.1604   9.2412 0000920  95.5144 264.5963 15.34443544 99395
STARLINK-32447          
1 61261U 24175U   26185.90293560  .00004841  00000+0  15426-3 0  9998
2 61261  53.1596   8.5938 0001340  94.9418 265.1737 15.34411719 99413
STARLINK-32446          
1 61262U 24175V   26185.79992188  .00004881  00000+0  15542-3 0  9991
2 61262  53.1622   8.6677 0000589 103.8137 256.2932 15.34411726 99402
STARLINK-32174          
1 61509U 24183A   26185.70911413  .00006143  00000+0  19274-3 0  9996
2 61509  53.1587 305.0612 0002009  81.9709 278.1521 15.34412628 97765
STARLINK-32139          
1 61510U 24183B   26185.74618186  .00002870  00000+0  10415-3 0  9994
2 61510  53.1605 318.0824 0000925 113.1977 246.9122 15.31718436 97580
STARLINK-32140          
1 61511U 24183C   26185.66225292  .00003782  00000+0  13341-3 0  9992
2 61511  53.1621 318.2702 0002123  86.5789 273.5455 15.31741836 97576
STARLINK-32201          
1 61512U 24183D   26185.71751410  .00004545  00000+0  14556-3 0  9992
2 61512  53.1602 305.1123 0002439  80.2250 279.9028 15.34407863 97750
STARLINK-32030          
1 61513U 24183E   26185.36108723  .00003227  00000+0  12108-3 0  9994
2 61513  53.1616 320.6511 0001318  94.2334 265.8817 15.30190906 97519
STARLINK-31837          
1 61514U 24183F   26185.67498248  .00003141  00000+0  11808-3 0  9994
2 61514  53.1603 319.0433 0001996  89.2882 270.8348 15.30212757 97564
STARLINK-32136          
1 61515U 24183G   26185.62969058  .00001564  00000+0  62136-4 0  9990
2 61515  53.1642 318.7761 0000673 117.2668 242.8402 15.31703731 97561
STARLINK-32047          
1 61516U 24183H   26186.32412058 -.00001492  00000+0 -36326-4 0  9996
2 61516  53.1611 315.2763 0001137  87.8651 272.2481 15.31700633 97676
STARLINK-31756          
1 61517U 24183J   26185.88620429  .00009597  00000+0  29446-3 0  9996
2 61517  53.1615 318.1755 0000786 125.4447 234.6629 15.34436632 97590
STARLINK-32172          
1 61518U 24183K   26185.79742968  .00002572  00000+0  94510-4 0  9991
2 61518  53.1598 317.6759 0001204  90.7655 269.3484 15.31741114 97595
STARLINK-32338          
1 61519U 24183L   26186.25005787 -.01301555  00000+0 -38652-1 0  9993
2 61519  53.1602 308.6646 0001052  91.1882 133.6559 15.37053668  5923
