OBJECT_NAME,OBJECT_ID,EPOCH,MEAN_MOTION,ECCENTRICITY,INCLINATION,RA_OF_ASC_NODE,ARG_OF_PERICENTER,MEAN_ANOMALY,EPHEMERIS_TYPE,CLASSIFICATION_TYPE,NORAD_CAT_ID,ELEMENT_SET_NO,REV_AT_EPOCH,BSTAR,MEAN_MOTION_DOT,MEAN_MOTION_DDOT
STARLINK-11300 [DTC],2024-175A,2026-07-05T00:23:25.829088,15.69736363,.00005759,53.1581,197.9117,105.8086,254.2996,0,U,61243,999,10179,.20962503E-4,.1955E-4,0
STARLINK-11276 [DTC],2024-175B,2026-07-04T07:27:52.909920,15.69701234,.00005661,53.1591,201.3311,102.9371,257.1710,0,U,61244,999,10168,.23602817E-4,.2271E-4,0
STARLINK-11280 [DTC],2024-175C,2026-07-05T01:33:54.933696,15.69742564,.00005844,53.1594,197.5101,143.9683,216.1375,0,U,61245,999,10180,.18630558E-4,.1672E-4,0
STARLINK-11308 [DTC],2024-175D,2026-07-04T18:02:35.309184,15.69715858,.00007744,53.1586,199.1042,107.2719,252.8384,0,U,61246,999,10175,.40431163E-4,.4314E-4,0
STARLINK-11305 [DTC],2024-175E,2026-07-05T01:26:51.773280,15.69731332,.00004836,53.1596,197.4672,274.5261,85.5701,0,U,61247,999,10180,.10152884E-4,.643E-5,0
STARLINK-11317 [DTC],2024-175F,2026-07-05T01:19:46.896960,15.69746262,.00007376,53.1584,197.4346,125.6200,234.4886,0,U,61248,999,10180,.54906047E-4,.6078E-4,0
STARLINK-11293 [DTC],2024-175G,2026-07-04T09:55:55.344864,15.69714488,.00011713,53.1585,200.5410,103.1429,256.9720,0,U,61249,999,10170,.35473957E-4,.3712E-4,0
STARLINK-11319 [DTC],2024-175J,2026-07-04T08:10:16.017024,15.69703953,.00010641,53.1583,201.5210,65.5621,294.5508,0,U,61251,999,10168,.29133676E-4,.2941E-4,0
STARLINK-11318 [DTC],2024-175K,2026-07-04T08:03:12.325248,15.69700541,.0000514,53.1588,201.4889,53.2055,306.9010,0,U,61252,999,10285,.26211872E-4,.2588E-4,0
STARLINK-11311 [DTC],2024-175L,2026-07-05T00:44:37.148064,15.69745802,.00015714,53.1602,198.0041,87.2480,272.8718,0,U,61253,999,10300,.28917769E-4,.292E-4,0
STARLINK-11306 [DTC],2024-175M,2026-07-05T00:37:33.442464,15.69736059,.00004709,53.1587,197.9701,74.8561,285.2509,0,U,61254,999,10299,.24153143E-4,.2342E-4,0
STARLINK-11313 [DTC],2024-175N,2026-07-05T00:30:28.828800,15.69756578,.00004225,53.1620,197.9353,114.8039,245.3023,0,U,61255,999,10179,.5522387E-4,.612E-4,0
STARLINK-32431,2024-175P,2026-07-04T21:31:08.834592,15.34407649,.00014569,53.1588,8.5585,69.2806,290.8353,0,U,61256,999,9941,.15969127E-3,.5024E-4,0
STARLINK-32432,2024-175Q,2026-07-04T21:22:02.987040,15.34401052,.00021363,53.1589,8.5194,73.3022,286.8215,0,U,61257,999,9941,.11258796E-3,.3429E-4,0
STARLINK-32382,2024-175R,2026-07-04T19:30:04.321728,15.34409995,.00010101,53.1609,8.7410,117.2710,242.8396,0,U,61258,999,9940,.31623948E-3,.10327E-3,0
STARLINK-32435,2024-175S,2026-07-04T22:16:27.622272,15.34429851,.00014562,53.1585,8.0489,106.1553,253.9610,0,U,61259,999,9942,.46070652E-3,.15236E-3,0
STARLINK-32474,2024-175T,2026-07-04T18:41:42.744480,15.34443544,.00009207,53.1604,9.2412,95.5144,264.5963,0,U,61260,999,9939,.53221976E-3,.17673E-3,0
STARLINK-32447,2024-175U,2026-07-04T21:40:13.635840,15.34411719,.00013401,53.1596,8.5938,94.9418,265.1737,0,U,61261,999,9941,.15426197E-3,.4841E-4,0
STARLINK-32446,2024-175V,2026-07-04T19:11:53.250432,15.34411726,.00005897,53.1622,8.6677,103.8137,256.2932,0,U,61262,999,9940,.15542019E-3,.4881E-4,0
STARLINK-32174,2024-183A,2026-07-04T17:01:07.460832,15.34412628,.00020093,53.1587,305.0612,81.9709,278.1521,0,U,61509,999,9776,.19273532E-3,.6143E-4,0
STARLINK-32139,2024-183B,2026-07-04T17:54:30.112704,15.31718436,.00009258,53.1605,318.0824,113.1977,246.9122,0,U,61510,999,9758,.10414915E-3,.287E-4,0
STARLINK-32140,2024-183C,2026-07-04T15:53:38.652288,15.31741836,.00021232,53.1621,318.2702,86.5789,273.5455,0,U,61511,999,9757,.13341103E-3,.3782E-4,0
STARLINK-32201,2024-183D,2026-07-04T17:13:13.218240,15.34407863,.00024397,53.1602,305.1123,80.2250,279.9028,0,U,61512,999,9775,.14556274E-3,.4545E-4,0
STARLINK-32030,2024-183E,2026-07-04T08:39:57.936672,15.30190906,.00013184,53.1616,320.6511,94.2334,265.8817,0,U,61513,999,9751,.12107766E-3,.3227E-4,0
STARLINK-31837,2024-183F,2026-07-04T16:11:58.486272,15.30212757,.00019967,53.1603,319.0433,89.2882,270.8348,0,U,61514,999,9756,.11808453E-3,.3141E-4,0
STARLINK-32136,2024-183G,2026-07-04T15:06:45.266112,15.31703731,.00006736,53.1642,318.7761,117.2668,242.8402,0,U,61515,999,9756,.62135506E-4,.1564E-4,0
STARLINK-32047,2024-183H,2026-07-05T07:46:44.018112,15.31700633,.00011379,53.1611,315.2763,87.8651,272.2481,0,U,61516,999,9767,-.36326002E-4,-.1492E-4,0
STARLINK-31756,2024-183J,2026-07-04T21:16:08.050656,15.34436632,.00007863,53.1615,318.1755,125.4447,234.6629,0,U,61517,999,9759,.2944566E-3,.9597E-4,0
STARLINK-32172,2024-183K,2026-07-04T19:08:17.924352,15.31741114,.00012043,53.1598,317.6759,90.7655,269.3484,0,U,61518,999,9759,.94510399E-4,.2572E-4,0
STARLINK-32338,2024-183L,2026-07-05T06:00:04.999968,15.37053668,.00010528,53.1602,308.6646,91.1882,133.6559,0,U,61519,999,592,-.38651913E-1,-.1301555E-1,0
